OBJECT_NAME,OBJECT_ID,EPOCH,MEAN_MOTION,ECCENTRICITY,INCLINATION,RA_OF_ASC_NODE,ARG_OF_PERICENTER,MEAN_ANOMALY,EPHEMERIS_TYPE,CLASSIFICATION_TYPE,NORAD_CAT_ID,ELEMENT_SET_NO,REV_AT_EPOCH,BSTAR,MEAN_MOTION_DOT,MEAN_MOTION_DDOT
DUBAISAT-1,2009-041B,2026-07-04T02:45:12.325536,14.75152914,.00107704,98.0074,318.1889,23.9326,336.2382,0,U,35682,999,90759,.16716301E-3,.1078E-4,0
OCEANSAT-2,2009-051A,2026-07-04T06:49:57.907200,13.99658639,.00165881,98.2318,170.4295,185.2404,174.8591,0,U,35931,999,88172,-.1144309E-3,-.205E-5,0
WORLDVIEW-2 (WV-2),2009-055A,2026-07-03T22:24:58.807872,14.37904463,.00047626,98.4761,258.1550,158.1542,201.9849,0,U,35946,999,87805,.6756456E-4,.16E-5,0
SMOS,2009-059A,2026-07-03T19:10:27.614208,14.39781805,.00013079,98.4427,11.8905,87.0458,273.0880,0,U,36036,999,87584,.10832016E-3,.296E-5,0
YAOGAN-7,2009-069A,2026-07-03T22:42:01.287072,14.78027131,.00243255,98.0049,70.7079,348.6785,11.3875,0,U,36110,999,89210,.87968274E-4,.585E-5,0
TANDEM-X,2010-030A,2026-07-01T14:48:18.164160,15.19152803,.00017924,97.4457,190.1177,96.8129,263.3310,0,U,36605,999,88883,.31705549E-4,.599E-5,0
CARTOSAT-2B,2010-035A,2026-07-04T07:47:52.217088,14.78607147,.00121975,97.9940,235.7652,130.5157,229.7119,0,U,36795,999,86238,.11785113E-3,.811E-5,0
YAOGAN-10,2010-038A,2026-07-04T07:58:56.345376,14.85402465,.00017346,97.8967,208.6004,82.1846,8.9763,0,U,36834,999,85975,.19290915E-3,.1607E-4,0
COSMO-SKYMED 4,2010-060A,2026-07-04T07:42:47.168064,14.82157373,.00014372,97.8887,8.6719,85.7503,274.3874,0,U,37216,999,84710,.11233956E-4,.37E-6,0
RESOURCESAT-2,2011-015A,2026-07-04T06:17:53.792160,14.21604091,.00109474,98.7637,252.5858,202.5480,157.5217,0,U,37387,999,78860,.67349999E-4,.103E-5,0
HAIYANG-2A,2011-043A,2026-07-03T06:36:14.288832,13.73851911,.0004319,99.3392,186.5890,60.1769,299.9809,0,U,37781,999,74886,.16466271E-3,.111E-5,0
RASAT,2011-044D,2026-07-04T06:55:18.166080,14.68182455,.00214806,98.0583,276.4246,135.4041,310.4964,0,U,37791,999,79569,.49509245E-4,.237E-5,0
SRMSAT,2011-058D,2026-07-04T01:35:48.804576,14.11579192,.00118515,19.9730,317.3057,29.9608,142.1060,0,U,37841,999,76020,.7032809E-4,.394E-5,0
PLEIADES 1A,2011-076F,2026-07-04T06:45:48.605184,14.58541503,.00017609,98.1973,260.1550,86.8811,4.3447,0,U,38012,999,77448,.61821503E-4,.242E-5,0
ZIYUAN 1-02C (ZY 1-02C),2011-079A,2026-07-04T08:01:15.018240,14.38228464,.0005158,98.4064,252.2843,253.5605,194.8833,0,U,38038,999,76167,.13597991E-3,.37E-5,0
ARIRANG-3 (KOMPSAT-3),2012-025B,2026-07-04T06:39:04.277376,14.62221872,.00067139,98.1179,142.4429,66.7846,293.4062,0,U,38338,999,75384,.11491001E-3,.532E-5,0
EXACTVIEW-1 (ADS-1B),2012-039C,2026-07-04T02:13:16.086720,14.24989763,.0011838,98.9797,302.8662,120.6879,239.5468,0,U,38709,999,72511,.84604514E-4,.152E-5,0
SPOT 6,2012-047A,2026-07-04T06:42:52.046784,14.58532297,.00012184,98.2112,252.3885,79.3093,280.8243,0,U,38755,999,73554,.32133569E-4,.103E-5,0
PLEIADES 1B,2012-068A,2026-07-04T07:09:44.801280,14.58570492,.00016868,98.1943,260.1147,83.9913,276.1478,0,U,39019,999,72334,.33441422E-4,.11E-5,0
GOKTURK 2,2012-073A,2026-07-04T07:19:29.895168,14.75559262,.00009561,97.6808,21.8774,67.9312,292.1999,0,U,39030,999,72703,.60104529E-4,.362E-5,0
LANDSAT 8,2013-008A,2026-07-04T04:36:50.662656,14.57106260,.00013548,98.2295,255.1251,93.5930,266.5423,0,U,39084,999,70037,.96488882E-4,.389E-5,0
SARAL,2013-009A,2026-07-04T03:35:05.567136,14.32893353,.00010191,98.5553,11.5020,201.6513,158.4629,0,U,39086,999,69803,-.420227E-5,-.55E-6,0
GAOFEN-1,2013-018A,2026-07-04T06:37:19.854336,14.76507072,.00161139,97.9089,256.9965,207.1834,152.8534,0,U,39150,999,71076,.33569638E-4,.183E-5,0
VNREDSAT 1,2013-021B,2026-07-04T07:15:18.770112,14.64874009,.00016957,97.9067,238.0614,82.9744,277.1653,0,U,39160,999,70279,.64217494E-4,.298E-5,0
ARIRANG-5 (KOMPSAT-5),2013-042A,2026-07-04T07:48:22.427712,15.04548517,.00052587,97.6206,11.7833,81.5356,278.6466,0,U,39227,999,70643,.1247976E-3,.1689E-4,0
SKYSAT-A,2013-066C,2026-07-03T20:34:25.269888,15.13066365,.00197448,97.3800,233.7235,255.1046,104.7999,0,U,39418,999,69100,.18704021E-3,.3258E-4,0
DUBAISAT-2,2013-066D,2026-07-04T05:32:55.564224,15.10311664,.00103904,97.4577,174.9303,344.9911,15.1008,0,U,39419,999,68896,.22314449E-3,.3598E-4,0
GPM-CORE,2014-009C,2026-07-04T04:06:54.964800,15.44927383,.0011218,64.9706,251.2311,258.3104,101.6778,0,U,39574,999,70043,.28718619E-3,.13383E-3,0
SENTINEL-1A,2014-016A,2026-07-04T07:18:39.542976,14.59200764,.00013789,98.1775,192.5874,84.5884,275.5473,0,U,39634,999,65251,.60996559E-4,.242E-5,0
KAZEOSAT 1,2014-024A,2026-07-03T22:50:10.114944,14.42086207,.0001156,98.3202,256.9818,78.7649,281.3671,0,U,39731,999,64097,.36168555E-4,.76E-6,0
