DUBAISAT-1              
1 35682U 09041B   26185.11472599  .00001078  00000+0  16716-3 0  9997
2 35682  98.0074 318.1889 0010770  23.9326 336.2382 14.75152914907598
OCEANSAT-2              
1 35931U 09051A   26185.28469800 -.00000205  00000+0 -11443-3 0  9999
2 35931  98.2318 170.4295 0016588 185.2404 174.8591 13.99658639881724
WORLDVIEW-2 (WV-2)      
1 35946U 09055A   26184.93401398  .00000160  00000+0  67565-4 0  9993
2 35946  98.4761 258.1550 0004762 158.1542 201.9849 14.37904463878057
SMOS                    
1 36036U 09059A   26184.79893072  .00000296  00000+0  10832-3 0  9990
2 36036  98.4427  11.8905 0001307  87.0458 273.0880 14.39781805875847
YAOGAN-7                
1 36110U 09069A   26184.94584823  .00000585  00000+0  87968-4 0  9998
2 36110  98.0049  70.7079 0024325 348.6785  11.3875 14.78027131892109
TANDEM-X                
1 36605U 10030A   26182.61687690  .00000599  00000+0  31706-4 0  9999
2 36605  97.4457 190.1177 0001792  96.8129 263.3310 15.19152803888836
CARTOSAT-2B             
1 36795U 10035A   26185.32490992  .00000811  00000+0  11785-3 0  9993
2 36795  97.9940 235.7652 0012197 130.5157 229.7119 14.78607147862385
YAOGAN-10               
1 36834U 10038A   26185.33259659  .00001607  00000+0  19291-3 0  9998
2 36834  97.8967 208.6004 0001734  82.1846   8.9763 14.85402465859752
COSMO-SKYMED 4          
1 37216U 10060A   26185.32137926  .00000037  00000+0  11234-4 0  9995
2 37216  97.8887   8.6719 0001437  85.7503 274.3874 14.82157373847108
RESOURCESAT-2           
1 37387U 11015A   26185.26242815  .00000103  00000+0  67350-4 0  9996
2 37387  98.7637 252.5858 0010947 202.5480 157.5217 14.21604091788602
HAIYANG-2A              
1 37781U 11043A   26184.27516538  .00000111  00000+0  16466-3 0  9991
2 37781  99.3392 186.5890 0004319  60.1769 299.9809 13.73851911748864
RASAT                   
1 37791U 11044D   26185.28840470  .00000237  00000+0  49509-4 0  9994
2 37791  98.0583 276.4246 0021480 135.4041 310.4964 14.68182455795693
SRMSAT                  
1 37841U 11058D   26185.06653709  .00000394  00000+0  70328-4 0  9995
2 37841  19.9730 317.3057 0011851  29.9608 142.1060 14.11579192760209
PLEIADES 1A             
1 38012U 11076F   26185.28181256  .00000242  00000+0  61822-4 0  9994
2 38012  98.1973 260.1550 0001760  86.8811   4.3447 14.58541503774486
ZIYUAN 1-02C (ZY 1-02C) 
1 38038U 11079A   26185.33420160  .00000370  00000+0  13598-3 0  9999
2 38038  98.4064 252.2843 0005158 253.5605 194.8833 14.38228464761671
ARIRANG-3 (KOMPSAT-3)   
1 38338U 12025B   26185.27713284  .00000532  00000+0  11491-3 0  9999
2 38338  98.1179 142.4429 0006713  66.7846 293.4062 14.62221872753840
EXACTVIEW-1 (ADS-1B)    
1 38709U 12039C   26185.09254730  .00000152  00000+0  84605-4 0  9998
2 38709  98.9797 302.8662 0011838 120.6879 239.5468 14.24989763725115
SPOT 6                  
1 38755U 12047A   26185.27976906  .00000103  00000+0  32134-4 0  9990
2 38755  98.2112 252.3885 0001218  79.3093 280.8243 14.58532297735546
PLEIADES 1B             
1 39019U 12068A   26185.29843520  .00000110  00000+0  33441-4 0  9994
2 39019  98.1943 260.1147 0001686  83.9913 276.1478 14.58570492723342
GOKTURK 2               
1 39030U 12073A   26185.30520712  .00000362  00000+0  60105-4 0  9996
2 39030  97.6808  21.8774 0000956  67.9312 292.1999 14.75559262727038
LANDSAT 8               
1 39084U 13008A   26185.19225304  .00000389  00000+0  96489-4 0  9993
2 39084  98.2295 255.1251 0001354  93.5930 266.5423 14.57106260700371
SARAL                   
1 39086U 13009A   26185.14936999 -.00000055  00000+0 -42023-5 0  9998
2 39086  98.5553  11.5020 0001019 201.6513 158.4629 14.32893353698033
GAOFEN-1                
1 39150U 13018A   26185.27592424  .00000183  00000+0  33570-4 0  9991
2 39150  97.9089 256.9965 0016113 207.1834 152.8534 14.76507072710769
VNREDSAT 1              
1 39160U 13021B   26185.30230058  .00000298  00000+0  64217-4 0  9991
2 39160  97.9067 238.0614 0001695  82.9744 277.1653 14.64874009702797
ARIRANG-5 (KOMPSAT-5)   
1 39227U 13042A   26185.32525958  .00001689  00000+0  12480-3 0  9995
2 39227  97.6206  11.7833 0005258  81.5356 278.6466 15.04548517706435
SKYSAT-A                
1 39418U 13066C   26184.85723692  .00003258  00000+0  18704-3 0  9994
2 39418  97.3800 233.7235 0019744 255.1046 104.7999 15.13066365691008
DUBAISAT-2              
1 39419U 13066D   26185.23119866  .00003598  00000+0  22314-3 0  9999
2 39419  97.4577 174.9303 0010390 344.9911  15.1008 15.10311664688968
GPM-CORE                
1 39574U 14009C   26185.17146950  .00013383  00000+0  28719-3 0  9994
2 39574  64.9706 251.2311 0011218 258.3104 101.6778 15.44927383700433
SENTINEL-1A             
1 39634U 14016A   26185.30462434  .00000242  00000+0  60997-4 0  9997
2 39634  98.1775 192.5874 0001378  84.5884 275.5473 14.59200764652516
KAZEOSAT 1              
1 39731U 14024A   26184.95150596  .00000076  00000+0  36169-4 0  9996
2 39731  98.3202 256.9818 0001156  78.7649 281.3671 14.42086207640970
